{
  "norad_id": 57251,
  "name": "STARLINK-5513",
  "history": [
    {
      "epoch": "2026-03-28T22:00:01.999584Z",
      "apogee_km": 487.3571645864149,
      "perigee_km": 485.6187669600822,
      "latitude_deg": 38.531508307659536,
      "longitude_deg": -123.70691803523806,
      "height_km": 489.5173835618126,
      "semi_major_axis_km": 6864.624965773248,
      "eccentricity": 0.00012662,
      "inclination_deg": 42.9993,
      "raan_deg": 270.764,
      "arg_perigee_deg": 293.56,
      "mean_anomaly_deg": 180.8638,
      "mean_motion_rev_day": 15.2643227
    },
    {
      "epoch": "2026-03-29T04:00:01.999584Z",
      "apogee_km": 486.9499416846638,
      "perigee_km": 484.66699342215543,
      "latitude_deg": 31.47330210161612,
      "longitude_deg": 63.524215766501285,
      "height_km": 487.59700758119783,
      "semi_major_axis_km": 6863.945467553409,
      "eccentricity": 0.0001663,
      "inclination_deg": 42.9988,
      "raan_deg": 269.3514,
      "arg_perigee_deg": 261.6473,
      "mean_anomaly_deg": 148.0688,
      "mean_motion_rev_day": 15.2665894
    },
    {
      "epoch": "2026-03-30T04:00:01.999584Z",
      "apogee_km": 486.6770516697379,
      "perigee_km": 484.3346276414195,
      "latitude_deg": 18.5545468032002,
      "longitude_deg": 175.16690837739947,
      "height_km": 485.2800158896721,
      "semi_major_axis_km": 6863.642839655578,
      "eccentricity": 0.00017064,
      "inclination_deg": 42.9999,
      "raan_deg": 263.7124,
      "arg_perigee_deg": 269.4848,
      "mean_anomaly_deg": 242.8049,
      "mean_motion_rev_day": 15.2675991
    }
  ]
}